{
    "links": {
        "self": "http://www.neowsapp.com/rest/v1/neo/3182180?api_key=iIulBulltgU6a56xZRHN4H3l9WmuAYTsLGpBGhQ2"
    },
    "id": "3182180",
    "neo_reference_id": "3182180",
    "name": "(2004 JO12)",
    "designation": "2004 JO12",
    "nasa_jpl_url": "http://ssd.jpl.nasa.gov/sbdb.cgi?sstr=3182180",
    "absolute_magnitude_h": 23.8,
    "estimated_diameter": {
        "kilometers": {
            "estimated_diameter_min": 0.046190746,
            "estimated_diameter_max": 0.1032856481
        },
        "meters": {
            "estimated_diameter_min": 46.1907460282,
            "estimated_diameter_max": 103.2856480504
        },
        "miles": {
            "estimated_diameter_min": 0.0287015901,
            "estimated_diameter_max": 0.0641787064
        },
        "feet": {
            "estimated_diameter_min": 151.544447199,
            "estimated_diameter_max": 338.8636855496
        }
    },
    "is_potentially_hazardous_asteroid": false,
    "close_approach_data": [
        {
            "close_approach_date": "1927-04-28",
            "close_approach_date_full": "1927-Apr-28 17:58",
            "epoch_date_close_approach": -1346824920000,
            "relative_velocity": {
                "kilometers_per_second": "15.9970498836",
                "kilometers_per_hour": "57589.3795810133",
                "miles_per_hour": "35783.8008846579"
            },
            "miss_distance": {
                "astronomical": "0.2890096097",
                "lunar": "112.4247381733",
                "kilometers": "43235222.020651339",
                "miles": "26865121.2114089182"
            },
            "orbiting_body": "Earth"
        },
        {
            "close_approach_date": "2004-05-12",
            "close_approach_date_full": "2004-May-12 22:08",
            "epoch_date_close_approach": 1084399680000,
            "relative_velocity": {
                "kilometers_per_second": "12.2865369988",
                "kilometers_per_hour": "44231.5331956811",
                "miles_per_hour": "27483.7546126164"
            },
            "miss_distance": {
                "astronomical": "0.033625064",
                "lunar": "13.080149896",
                "kilometers": "5030237.95301368",
                "miles": "3125644.925921584"
            },
            "orbiting_body": "Earth"
        }
    ],
    "orbital_data": {
        "orbit_id": "15",
        "orbit_determination_date": "2017-04-06 09:12:46",
        "first_observation_date": "2004-05-14",
        "last_observation_date": "2004-05-23",
        "data_arc_in_days": 9,
        "observations_used": 55,
        "orbit_uncertainty": "8",
        "minimum_orbit_intersection": ".0332621",
        "jupiter_tisserand_invariant": "4.671",
        "epoch_osculation": "2453142.5",
        "eccentricity": ".2552925548867975",
        "semi_major_axis": "1.390278432803083",
        "inclination": "21.70308804613073",
        "ascending_node_longitude": "231.8288412430913",
        "orbital_period": "598.757691588085",
        "perihelion_distance": "1.035350699688771",
        "perihelion_argument": "16.60916739351542",
        "aphelion_distance": "1.745206165917394",
        "perihelion_time": "2453153.457342737017",
        "mean_anomaly": "353.4119537155944",
        "mean_motion": ".6012448859657603",
        "equinox": "J2000",
        "orbit_class": {
            "orbit_class_type": "AMO",
            "orbit_class_description": "Near-Earth asteroid orbits similar to that of 1221 Amor",
            "orbit_class_range": "1.017 AU < q (perihelion) < 1.3 AU"
        }
    },
    "is_sentry_object": false
}